O3B FM5                 
1 39188U 13031A   22253.63056635 -.00000028  00000+0  00000+0 0  9994
2 39188   0.0603  19.0876 0002593 153.8018 187.1135  5.00115265168226
O3B FM4                 
1 39189U 13031B   22253.48670979 -.00000028  00000+0  00000+0 0  9991
2 39189   0.0539 351.5475 0002554 180.8980 187.5575  5.00115776168239
O3B FM2                 
1 39190U 13031C   22254.37769564 -.00000028  00000+0  00000+0 0  9991
2 39190   0.0551 346.3265 0002581 185.9853 187.6916  5.00116850168323
O3B PFM                 
1 39191U 13031D   22253.80431070 -.00000028  00000+0  00000+0 0  9997
2 39191   0.0554  11.4428 0002651 158.9071 189.6545  5.00115669167852
O3B FM3                 
1 40079U 14038A   22253.25940572 -.00000028  00000+0  00000+0 0  9993
2 40079   0.0549 359.6779 0004947 158.9836 201.3583  5.00115317144217
O3B FM7                 
1 40080U 14038B   22253.60525806 -.00000028  00000+0  00000+0 0  9993
2 40080   0.0579 356.4035 0001518 218.1752 145.4106  5.00115450149064
O3B FM6                 
1 40081U 14038C   22253.63163502 -.00000028  00000+0  00000+0 0  9998
2 40081   0.0540 358.9182 0002692 171.2570 189.8293  5.00115332149017
O3B FM8                 
1 40082U 14038D   22253.68556567 -.00000028  00000+0  00000+0 0  9991
2 40082   0.0527 355.7210 0002651 171.9270 192.3577  5.00115616149120
O3B FM10                
1 40348U 14083A   22252.71216174 -.00000028  00000+0  00000+0 0  9996
2 40348   0.0512   8.2507 0002625 160.8701 190.8840  5.00115074141031
O3B FM11                
1 40349U 14083B   22253.52518293 -.00000028  00000+0  00000+0 0  9994
2 40349   0.0559   8.1379 0002436 177.2755 174.5832  5.00115345141097
O3B FM12                
1 40350U 14083C   22253.55238944 -.00000028  00000+0  00000+0 0  9991
2 40350   0.0553   7.3932 0002731 165.6649 186.9450  5.00115209141104
O3B FM9                 
1 40351U 14083D   22253.17951427 -.00000028  00000+0  00000+0 0  9998
2 40351   0.0570   8.5462 0002586 162.2250 189.2327  5.00116134141235
DIAMOND RED             
1 42783U 17036U   22254.10546206  .00008957  00000+0  32338-3 0  9990
2 42783  97.1926 291.9910 0010950  35.2694 324.9269 15.28654025290021
DIAMOND GREEN           
1 42785U 17036W   22254.10604810  .00009235  00000+0  33358-3 0  9991
2 42785  97.1929 292.0547 0010784  36.9341 323.2640 15.28631555290013
DIAMOND BLUE            
1 42786U 17036X   22253.58139140  .00009115  00000+0  32942-3 0  9997
2 42786  97.1931 291.5399 0010911  39.0244 321.1782 15.28616908290013
LEO VANTAGE 1           
1 43113U 18004C   22253.82020710  .00001171  00000+0  10149-3 0  9996
2 43113  99.2444 342.9637 0399802 294.9133  61.1011 14.54089196236640
O3B FM15                
1 43231U 18024A   22253.84511990 -.00000028  00000+0  00000+0 0  9998
2 43231   0.0478   8.8438 0002910 163.8135 187.3463  5.00115984 82391
O3B FM16                
1 43232U 18024B   22253.29883574 -.00000028  00000+0  00000+0 0  9998
2 43232   0.0440  10.7840 0002886 161.7431 187.4763  5.00115853 82106
O3B FM14                
1 43233U 18024C   22253.53835514 -.00000028  00000+0  00000+0 0  9997
2 43233   0.0424  10.7881 0002719 163.9796 185.2343  5.00115252 82133
O3B FM13                
1 43234U 18024D   22253.59186264 -.00000028  00000+0  00000+0 0  9995
2 43234   0.0558  31.5717 0003662 148.0687 180.3591  5.00115030 82250
O3B FM20                
1 44112U 19020A   22253.96484906 -.00000028  00000+0  00000+0 0  9993
2 44112   0.0510   7.5022 0003027 172.0931 180.4043  5.00115411 62850
O3B FM19                
1 44113U 19020B   22253.59186275 -.00000028  00000+0  00000+0 0  9991
2 44113   0.0682  23.3428 0001491 164.1904 172.4638  5.00115061 62629
O3B FM17                
1 44114U 19020C   22253.67237867 -.00000028  00000+0  00000+0 0  9995
2 44114   0.0382 347.8073 0003028 185.2095 186.9866  5.00115523 62705
O3B FM18                
1 44115U 19020D   22254.41846180 -.00000028  00000+0  00000+0 0  9993
2 44115   0.0513   7.8213 0002879 163.2328 188.9505  5.00115734 62862
SALSAT                  
1 46495U 20068K   22253.81753812  .00001803  00000+0  13192-3 0  9993
2 46495  97.7334 195.1790 0016182 355.2265   4.8804 15.04810524107025
